QIANFAN-33              
1 61566U 24185Q   25197.86394842  .00000311  00000+0  21560-3 0  9993
2 61566  88.9808  95.4230 0009193  70.6743 289.5427 13.96391966 48382
QIANFAN-34              
1 61567U 24185R   25197.86868879  .00000333  00000+0  20914-3 0  9996
2 61567  88.9787  95.1823 0008292  78.4930 281.7181 14.02147157 48499
QIANFAN-35              
1 61568U 24185S   25197.90984590  .00000517  00000+0  20402-3 0  9997
2 61568  88.9808  94.3653 0009108  62.1109 298.1006 14.27637069 48942
QIANFAN-36              
1 61569U 24185T   25197.85818577  .00000091  00000+0  11278-3 0  9991
2 61569  88.9798  96.5680 0007957 105.1450 255.0585 13.55541356 47757
QIANFAN-37              
1 62238U 24232B   25197.89982147  .00000139  00000+0  19676-3 0  9990
2 62238  88.9937  56.3948 0002137 103.4601 256.6788 13.50962944 79078
QIANFAN-38              
1 62239U 24232C   25197.85041206  .00000062  00000+0  77295-4 0  9996
2 62239  88.9942  56.3057 0012584 266.2402  93.7310 13.50951868 79120
QIANFAN-39              
1 62240U 24232D   25197.86698127  .00000207  00000+0  81904-4 0  9992
2 62240  88.9938  54.3731 0015064 198.7231 161.3409 14.25223501 80187
QIANFAN-40              
1 62241U 24232E   25197.88334790  .00000056  00000+0  68926-4 0  9999
2 62241  88.9969  55.8451 0011660 275.5102  84.4719 13.50958084 79495
